STARLINK-35396          
1 65828U 25221F   26040.80292603  .00024795  00000+0  84603-3 0  9993
2 65828  53.1598 217.8849 0001485  88.7696 271.3475 15.30218076 21817
STARLINK-35244          
1 65829U 25221G   26040.76767011  .00030862  00000+0  10496-2 0  9999
2 65829  53.1588 220.5482 0000983 108.9850 251.1258 15.30206551 21731
STARLINK-35368          
1 65830U 25221H   26040.77663448  .00023001  00000+0  78616-3 0  9997
2 65830  53.1576 218.4295 0000815  86.6090 273.5004 15.30206571 21762
STARLINK-35337          
1 65831U 25221J   26040.79658796  .00025717  00000+0  87677-3 0  9993
2 65831  53.1579 217.8477 0001121 125.6506 234.4599 15.30223100 21816
STARLINK-35277          
1 65832U 25221K   26040.79973624  .00016740  00000+0  57588-3 0  9998
2 65832  53.1597 217.8631 0000486 135.1333 224.9707 15.30208233 21811
STARLINK-35345          
1 65833U 25221L   26040.72387962  .00015605  00000+0  53773-3 0  9997
2 65833  53.1577 218.1030 0000841  87.8435 272.2662 15.30208491 21809
STARLINK-35320          
1 65834U 25221M   26040.76396854  .00023778  00000+0  81217-3 0  9996
2 65834  53.1586 218.3526 0001179 100.3409 259.7725 15.30207581 20458
STARLINK-35349          
1 65835U 25221N   26040.96626031  .00035500  00000+0  12047-2 0  9992
2 65835  53.1578 217.4853 0001356  81.2440 278.8715 15.30208937 20482
STARLINK-35356          
1 65836U 25221P   26040.78601786  .00017395  00000+0  59801-3 0  9995
2 65836  53.1567 217.7794 0001017  59.3240 300.7861 15.30203287 20464
STARLINK-35314          
1 65837U 25221Q   26040.74920345  .00050184  00000+0  16918-2 0  9991
2 65837  53.1595 218.2516 0001043 147.3859 212.7206 15.30262838 20458
STARLINK-35324          
1 65838U 25221R   26040.77345193  .00042235  00000+0  14272-2 0  9996
2 65838  53.1584 218.4220 0002196  71.7328 288.3912 15.30263539 20454
STARLINK-35102          
1 65839U 25221S   26040.81134342  .00017884  00000+0  61432-3 0  9997
2 65839  53.1583 217.9348 0000918 103.6261 256.4842 15.30208911 20462
STARLINK-35364          
1 65840U 25221T   26040.80818143  .00020317  00000+0  69609-3 0  9995
2 65840  53.1596 217.9157 0001422  92.3718 267.7446 15.30205280 20469
STARLINK-35298          
1 65842U 25221V   26040.80501556  .00018477  00000+0  63433-3 0  9997
2 65842  53.1595 217.8949 0000934  99.3018 260.8088 15.30203762 20464
STARLINK-35301          
1 65843U 25221W   26040.79552932  .00024993  00000+0  85259-3 0  9990
2 65843  53.1577 217.8331 0000762 107.6880 252.4204 15.30220862 20466
STARLINK-35148          
1 65844U 25221X   26040.81767381  .00023889  00000+0  81579-3 0  9994
2 65844  53.1599 217.9750 0001137  93.2997 266.8134 15.30211974 20468
