[{"OBJECT_NAME":"STARLINK-35396","OBJECT_ID":"2025-221F","EPOCH":"2026-02-09T19:16:12.808992","MEAN_MOTION":15.30218076,"ECCENTRICITY":0.00014852,"INCLINATION":53.1598,"RA_OF_ASC_NODE":217.8849,"ARG_OF_PERICENTER":88.7696,"MEAN_ANOMALY":271.3475,"EPHEMERIS_TYPE":0,"CLASSIFICATION_TYPE":"U","NORAD_CAT_ID":65828,"ELEMENT_SET_NO":999,"REV_AT_EPOCH":2181,"BSTAR":0.0008460274,"MEAN_MOTION_DOT":0.00024795,"MEAN_MOTION_DDOT":0},{"OBJECT_NAME":"STARLINK-35244","OBJECT_ID":"2025-221G","EPOCH":"2026-02-09T18:25:26.697504","MEAN_MOTION":15.30206551,"ECCENTRICITY":9.837e-5,"INCLINATION":53.1588,"RA_OF_ASC_NODE":220.5482,"ARG_OF_PERICENTER":108.985,"MEAN_ANOMALY":251.1258,"EPHEMERIS_TYPE":0,"CLASSIFICATION_TYPE":"U","NORAD_CAT_ID":65829,"ELEMENT_SET_NO":999,"REV_AT_EPOCH":2173,"BSTAR":0.0010495809,"MEAN_MOTION_DOT":0.00030862,"MEAN_MOTION_DDOT":0},{"OBJECT_NAME":"STARLINK-35368","OBJECT_ID":"2025-221H","EPOCH":"2026-02-09T18:38:21.219072","MEAN_MOTION":15.30206571,"ECCENTRICITY":8.15e-5,"INCLINATION":53.1576,"RA_OF_ASC_NODE":218.4295,"ARG_OF_PERICENTER":86.609,"MEAN_ANOMALY":273.5004,"EPHEMERIS_TYPE":0,"CLASSIFICATION_TYPE":"U","NORAD_CAT_ID":65830,"ELEMENT_SET_NO":999,"REV_AT_EPOCH":2176,"BSTAR":0.0007861595,"MEAN_MOTION_DOT":0.00023001,"MEAN_MOTION_DDOT":0},{"OBJECT_NAME":"STARLINK-35337","OBJECT_ID":"2025-221J","EPOCH":"2026-02-09T19:07:05.199744","MEAN_MOTION":15.302231,"ECCENTRICITY":0.00011212,"INCLINATION":53.1579,"RA_OF_ASC_NODE":217.8477,"ARG_OF_PERICENTER":125.6506,"MEAN_ANOMALY":234.4599,"EPHEMERIS_TYPE":0,"CLASSIFICATION_TYPE":"U","NORAD_CAT_ID":65831,"ELEMENT_SET_NO":999,"REV_AT_EPOCH":2181,"BSTAR":0.00087676692,"MEAN_MOTION_DOT":0.00025717,"MEAN_MOTION_DDOT":0},{"OBJECT_NAME":"STARLINK-35277","OBJECT_ID":"2025-221K","EPOCH":"2026-02-09T19:11:37.211136","MEAN_MOTION":15.30208233,"ECCENTRICITY":4.864e-5,"INCLINATION":53.1597,"RA_OF_ASC_NODE":217.8631,"ARG_OF_PERICENTER":135.1333,"MEAN_ANOMALY":224.9707,"EPHEMERIS_TYPE":0,"CLASSIFICATION_TYPE":"U","NORAD_CAT_ID":65832,"ELEMENT_SET_NO":999,"REV_AT_EPOCH":2181,"BSTAR":0.00057588314,"MEAN_MOTION_DOT":0.0001674,"MEAN_MOTION_DDOT":0},{"OBJECT_NAME":"STARLINK-35345","OBJECT_ID":"2025-221L","EPOCH":"2026-02-09T17:22:23.199168","MEAN_MOTION":15.30208491,"ECCENTRICITY":8.41e-5,"INCLINATION":53.1577,"RA_OF_ASC_NODE":218.103,"ARG_OF_PERICENTER":87.8435,"MEAN_ANOMALY":272.2662,"EPHEMERIS_TYPE":0,"CLASSIFICATION_TYPE":"U","NORAD_CAT_ID":65833,"ELEMENT_SET_NO":999,"REV_AT_EPOCH":2180,"BSTAR":0.00053773149,"MEAN_MOTION_DOT":0.00015605,"MEAN_MOTION_DDOT":0},{"OBJECT_NAME":"STARLINK-35320","OBJECT_ID":"2025-221M","EPOCH":"2026-02-09T18:20:06.881856","MEAN_MOTION":15.30207581,"ECCENTRICITY":0.00011792,"INCLINATION":53.1586,"RA_OF_ASC_NODE":218.3526,"ARG_OF_PERICENTER":100.3409,"MEAN_ANOMALY":259.7725,"EPHEMERIS_TYPE":0,"CLASSIFICATION_TYPE":"U","NORAD_CAT_ID":65834,"ELEMENT_SET_NO":999,"REV_AT_EPOCH":2045,"BSTAR":0.00081216723,"MEAN_MOTION_DOT":0.00023778,"MEAN_MOTION_DDOT":0},{"OBJECT_NAME":"STARLINK-35349","OBJECT_ID":"2025-221N","EPOCH":"2026-02-09T23:11:24.890784","MEAN_MOTION":15.30208937,"ECCENTRICITY":0.0001356,"INCLINATION":53.1578,"RA_OF_ASC_NODE":217.4853,"ARG_OF_PERICENTER":81.244,"MEAN_ANOMALY":278.8715,"EPHEMERIS_TYPE":0,"CLASSIFICATION_TYPE":"U","NORAD_CAT_ID":65835,"ELEMENT_SET_NO":999,"REV_AT_EPOCH":2048,"BSTAR":0.0012047,"MEAN_MOTION_DOT":0.000355,"MEAN_MOTION_DDOT":0},{"OBJECT_NAME":"STARLINK-35356","OBJECT_ID":"2025-221P","EPOCH":"2026-02-09T18:51:51.943104","MEAN_MOTION":15.30203287,"ECCENTRICITY":0.00010175,"INCLINATION":53.1567,"RA_OF_ASC_NODE":217.7794,"ARG_OF_PERICENTER":59.324,"MEAN_ANOMALY":300.7861,"EPHEMERIS_TYPE":0,"CLASSIFICATION_TYPE":"U","NORAD_CAT_ID":65836,"ELEMENT_SET_NO":999,"REV_AT_EPOCH":2046,"BSTAR":0.00059800673,"MEAN_MOTION_DOT":0.00017395,"MEAN_MOTION_DDOT":0},{"OBJECT_NAME":"STARLINK-35314","OBJECT_ID":"2025-221Q","EPOCH":"2026-02-09T17:58:51.178080","MEAN_MOTION":15.30262838,"ECCENTRICITY":0.00010437,"INCLINATION":53.1595,"RA_OF_ASC_NODE":218.2516,"ARG_OF_PERICENTER":147.3859,"MEAN_ANOMALY":212.7206,"EPHEMERIS_TYPE":0,"CLASSIFICATION_TYPE":"U","NORAD_CAT_ID":65837,"ELEMENT_SET_NO":999,"REV_AT_EPOCH":2045,"BSTAR":0.0016917967,"MEAN_MOTION_DOT":0.00050184,"MEAN_MOTION_DDOT":0},{"OBJECT_NAME":"STARLINK-35324","OBJECT_ID":"2025-221R","EPOCH":"2026-02-09T18:33:46.246752","MEAN_MOTION":15.30263539,"ECCENTRICITY":0.00021961,"INCLINATION":53.1584,"RA_OF_ASC_NODE":218.422,"ARG_OF_PERICENTER":71.7328,"MEAN_ANOMALY":288.3912,"EPHEMERIS_TYPE":0,"CLASSIFICATION_TYPE":"U","NORAD_CAT_ID":65838,"ELEMENT_SET_NO":999,"REV_AT_EPOCH":2045,"BSTAR":0.0014271916,"MEAN_MOTION_DOT":0.00042235,"MEAN_MOTION_DDOT":0},{"OBJECT_NAME":"STARLINK-35102","OBJECT_ID":"2025-221S","EPOCH":"2026-02-09T19:28:20.071488","MEAN_MOTION":15.30208911,"ECCENTRICITY":9.181e-5,"INCLINATION":53.1583,"RA_OF_ASC_NODE":217.9348,"ARG_OF_PERICENTER":103.6261,"MEAN_ANOMALY":256.4842,"EPHEMERIS_TYPE":0,"CLASSIFICATION_TYPE":"U","NORAD_CAT_ID":65839,"ELEMENT_SET_NO":999,"REV_AT_EPOCH":2046,"BSTAR":0.00061432216,"MEAN_MOTION_DOT":0.00017884,"MEAN_MOTION_DDOT":0},{"OBJECT_NAME":"STARLINK-35364","OBJECT_ID":"2025-221T","EPOCH":"2026-02-09T19:23:46.875552","MEAN_MOTION":15.3020528,"ECCENTRICITY":0.00014222,"INCLINATION":53.1596,"RA_OF_ASC_NODE":217.9157,"ARG_OF_PERICENTER":92.3718,"MEAN_ANOMALY":267.7446,"EPHEMERIS_TYPE":0,"CLASSIFICATION_TYPE":"U","NORAD_CAT_ID":65840,"ELEMENT_SET_NO":999,"REV_AT_EPOCH":2046,"BSTAR":0.00069608979,"MEAN_MOTION_DOT":0.00020317,"MEAN_MOTION_DDOT":0},{"OBJECT_NAME":"STARLINK-35298","OBJECT_ID":"2025-221V","EPOCH":"2026-02-09T19:19:13.344384","MEAN_MOTION":15.30203762,"ECCENTRICITY":9.349e-5,"INCLINATION":53.1595,"RA_OF_ASC_NODE":217.8949,"ARG_OF_PERICENTER":99.3018,"MEAN_ANOMALY":260.8088,"EPHEMERIS_TYPE":0,"CLASSIFICATION_TYPE":"U","NORAD_CAT_ID":65842,"ELEMENT_SET_NO":999,"REV_AT_EPOCH":2046,"BSTAR":0.00063433095,"MEAN_MOTION_DOT":0.00018477,"MEAN_MOTION_DDOT":0},{"OBJECT_NAME":"STARLINK-35301","OBJECT_ID":"2025-221W","EPOCH":"2026-02-09T19:05:33.733248","MEAN_MOTION":15.30220862,"ECCENTRICITY":7.625e-5,"INCLINATION":53.1577,"RA_OF_ASC_NODE":217.8331,"ARG_OF_PERICENTER":107.688,"MEAN_ANOMALY":252.4204,"EPHEMERIS_TYPE":0,"CLASSIFICATION_TYPE":"U","NORAD_CAT_ID":65843,"ELEMENT_SET_NO":999,"REV_AT_EPOCH":2046,"BSTAR":0.00085259258,"MEAN_MOTION_DOT":0.00024993,"MEAN_MOTION_DDOT":0},{"OBJECT_NAME":"STARLINK-35148","OBJECT_ID":"2025-221X","EPOCH":"2026-02-09T19:37:27.017184","MEAN_MOTION":15.30211974,"ECCENTRICITY":0.0001137,"INCLINATION":53.1599,"RA_OF_ASC_NODE":217.975,"ARG_OF_PERICENTER":93.2997,"MEAN_ANOMALY":266.8134,"EPHEMERIS_TYPE":0,"CLASSIFICATION_TYPE":"U","NORAD_CAT_ID":65844,"ELEMENT_SET_NO":999,"REV_AT_EPOCH":2046,"BSTAR":0.00081579,"MEAN_MOTION_DOT":0.00023889,"MEAN_MOTION_DDOT":0}]
